nom,departement,numero_dep,categorie,resume,histoire,latitude,longitude,adresse,baignade,toilettes,restaurant,photo
Les fées des houles,Côte d’Armor & Ille-et-Villaine,2235,Créatures Fantastiques,Des fées bienveillantes qui viennent en aide aux humains...,"Fée Armelle : “Cette histoire est en partie la mienne ; voici la légende des fées des Houles. Les fées ont toujours été considérées comme des créatures d’une grande beauté. Mais les fées des Houles ont cette aura particulière, éthérée. Bien qu’elles soient des créatures extrêmement puissantes, elles sont bienveillantes envers les humains et leur viennent en aide de multiples façons en leur fournissant de la nourriture, des objets ou encore en leur enseignant la magie. Alors, si vous vous promenez un jour sur les plages de Cancale, soyez bien attentif… Il n’est pas impossible qu’un brin de magie vous fasse vivre une expérience inoubliable. “",48.83074188232422,-3.4850218296051025,22700 Perros-Guirec,TRUE,TRUE,TRUE,https://www.tourismebretagne.com/app/uploads/crt-bretagne/2018/10/ploumanac-h-5-1920x960-crop-1540892671.jpg
La légende de St Efflam,Côte d’Armor & Ille-et-Villaine,2235,Créatures Fantastiques,Une histoire d'amour et de dragons...,"De nombreuses légendes merveilleuses tournent autour du grand rocher mais la plus magique est certainement celle de St Efflam. Efflam est l’unique fils d’un chef de clan né au Vème siècle. Malgré sa volonté de devenir moine, il fut fiancé à Enora, la fille d’un roi d’Irlande. Cependant, lors de la nuit de noces, il embarqua pour l’Armorique pour y fonder un ermitage. Une fois arrivé, il tomba nez à nez avec le roi Arthur, en plein combat avec un énorme dragon. Constatant qu’Arthur ne parvenait pas à venir à bout de cette bête, il s’empressa de faire jaillir une source de son bâton afin de le désaltérer et décida lui-même de s’occuper du dragon. Il lui ordonna, au nom du Christ, de se montrer. La bête obéit et surgit du grand rocher avant de disparaître en mer sans laisser de traces. Suite à cet évenement, Efflam s’installa au pied du grand rocher et invita sa femme Enora à le rejoindre. Les deux époux passèrent le reste de leur vie ensemble, menant une vie de religieux.",48.670864749933,-3.6029395955050605,22310 Plestin-les-Grèves,TRUE,TRUE,TRUE,https://api.cloudly.space/resize/clip/1900/1080/75/aHR0cHM6Ly9jZHQzNS5tZWRpYS50b3VyaW5zb2Z0LmV1L3VwbG9hZC9QbGFnZS1kZS1TYWludC1FZmZsYW0uanBn/image.jpg
La légende de St Efflam,Côte d’Armor & Ille-et-Villaine,2235,Histoires Maritimes,Une histoire d'amour et de dragons...,"Ce gros rocher fait parler de lui, et il y a de quoi ! On raconte qu’une vieille légende s’y rattache : celle de St Efflam. Efflam est l’unique fils d’un chef de clan né au Vème siècle. Malgré sa volonté de devenir moine, il fut fiancé à Enora, la fille d’un roi d’Irlande. Mais, lors de la nuit de noces, il embarqua pour l’Armorique pour y fonder un ermitage. Une fois arrivé, il tomba nez à nez avec le roi Arthur, en plein combat avec un énorme dragon, mille millions de sabords ! Constatant qu’Arthur ne parvenait pas à venir à bout de cette affreuse bête, il s’empressa de faire jaillir une source de son bâton afin de le désaltérer et décida lui-même de s’occuper du dragon. Il lui ordonna, au nom du Christ, de se montrer. La bête obéit et surgit du grand rocher avant de disparaître en mer sans laisser de traces. Suite à cet évenement, Efflam s’installa au pied du grand rocher et invita sa femme Enora à le rejoindre. Les deux époux passèrent le reste de leur vie ensemble, menant une vie de religieux.",48.670864749933,-3.6029395955050605,22310 Plestin-les-Grèves,TRUE,TRUE,TRUE,https://api.cloudly.space/resize/clip/1900/1080/75/aHR0cHM6Ly9jZHQzNS5tZWRpYS50b3VyaW5zb2Z0LmV1L3VwbG9hZC9QbGFnZS1kZS1TYWludC1FZmZsYW0uanBn/image.jpg
La légende du naufrage,Côte d’Armor & Ille-et-Villaine,2235,Histoires Maritimes,Un miracle qui a sauvé la vie de tout un navire...,"Peut-être as-tu entendu parler de cette drôle de légende. Elle raconte que lors d’une nuit de brouillard, un vieux rafiot fit naufrage. Bien que l’équipage et les passagers étaient tous sûrs d’y passer, une mère de famille implora une dame de les sauver. La vierge qu’elle s'appelait je crois. Et là, sortie de nulle part, une lumière est apparue. On dit que c’est la Vierge qui aurait ordonné aux Roc’h Karlés situés dans les collines de venir au secours des pauvres matelots pour grimper sur les flancs et échapper aux au déchainement de l’océan.",48.67205504062106,-3.588691701901473,22310 Plestin-les-Grèves,TRUE,TRUE,TRUE,https://www.bretagne-cotedegranitrose.com/app/uploads/lannion-tourisme/2020/06/thumbs/plestin-les-grves-beg-douar-9-b-torrubia-2012-1920x960-crop-1592317398.jpg
La légende du naufrage,Côte d’Armor & Ille-et-Villaine,2235,Croyances Religion,Un miracle qui a sauvé la vie de tout un navire...,"Cette sainte légende est l’histoire d’un miracle ! Elle raconte que lors d’une nuit de brouillard farouchement agitée, un bateau fit naufrage. Bien que l’équipage et les passagers étaient tous prêts à s’en rendre à la décision de Dieu, une mère de famille implora Notre Dame de Bon Secours de les sauver. Aussitôt, une lumière éclatante est apparue. On dit que c’est la Sainte Vierge, mère du Christ, qui aurait ordonné aux Roc’h Karlés situé dans les collines de venir au secours des naufragés pour grimper sur les flancs et échapper aux flots déchaînés.",48.67205504062106,-3.588691701901473,22310 Plestin-les-Grèves,TRUE,TRUE,TRUE,https://www.bretagne-cotedegranitrose.com/app/uploads/lannion-tourisme/2020/06/thumbs/plestin-les-grves-beg-douar-9-b-torrubia-2012-1920x960-crop-1592317398.jpg
Guénolé de Landévennec,Finistère,29,Croyances Religion,Un saint confronté à son pire ennemi : le diable... ,"Saint Guénolé était un confrère voué à la religion et chargé de protéger l'Île de Sein, qui s’appelait à l’époque Insula Seidhun. Il devait aussi protéger ses habitants des injonctions et des paroles envoyées par le Diable. Le brave homme faisait souvent le trajet entre l’Abbaye de Landevennec et l’Ile , et il s’arrêtait souvent faire une pause au Bec du Raz pour contempler sa cité. Il envisageait de construire un pont entre le bec et l’Ile afin que les habitants puissent voyager plus facilement et sans danger lorsque le temps était mauvais. Un jour, alors que Guénolé contemplait le paysage, un bel homme s’approcha de lui. Le Saint reconnu immédiatement à son ton mielleux et ses pieds fourchus que devant lui se tenait le Diable en personne.

'Que me veux-tu, Polig ? (Petit Paul, surnom du diable)
— Je veux aller sur l’île qui est au loin là-bas.
— Par ma crosse, tu ne passeras pas.
— J’ai ouï dire que tu envisages de construire un pont, et tu ne pourras pas m’empêcher de l’emprunter lorsqu’il sera construit.
— Alors je ne construirai pas de pont.
— Dans ce cas là, tu seras parjure car tu as donné ta parole. Tu perdras ta sainteté et tu deviendras vite mon disciple car le mensonge aura raison de toi.'

Guénolé était dans une impasse. La construction du pont entraînerait la venue du Diable et par conséquent la perte des âmes qui peuplaient l'Île. Mais si le Saint renonçait à construire ce pont, il deviendrait un menteur aux yeux des habitants.

Mais notre seigneur Dieu veillait, et les prières de Guénolé furent miraculeusement entendues. Ayant pitié de son pasteur, il lui offrit un miracle. Grâce à la protection divine, le Saint établit un pont de glace entre l'Île de Sein et le Bec du Raz, sachant pertinemment que le Diable ne tarderait pas à arriver. Ce dernier se montra effectivement très rapidement, persuadé de sa victoire, ne pouvant attendre de corrompre les âmes innocentes des Iliens. Mais alors qu’il se précipitait sur le pont, ses sabots brûlants firent fondre la glace, l’entrainant ainsi au bas de la falaise que l’on nomme aujourd’hui 'la cheminée du Diable'. Loin de reconnaître sa défaite, le Diable tenta de prendre le bateau pour revenir sur l'île. Mais ses sabots incandescents l'empêchaient à nouveau d’atteindre son but, brûlant les navires de bois avant qu’ils n’arrivent au port. 

Constatant que le Diable n’abandonnait pas, Guénolé usa de nouveau de sa protection divine pour augmenter la force des courants, rendant ainsi son périple parmi les flots encore plus difficile et éleva la chaleur de ses sabots pour qu’aucune chaussure ou autre protection ne puisse protéger les bateaux de ses pieds bouillants.

",48.03757878062565,-4.851845667552539,29990 Île-de-Sein,TRUE,TRUE,TRUE,https://www.tourismebretagne.com/app/uploads/crt-bretagne/2018/10/d-audierne-a-l-ile-de-sein-echappee-belle-10-1920x960-crop-1540919383.jpg
La Baie des Trépassés,Finistère,29,Histoires Maritimes,Une plage macabre qui effraie les marins de toute la Bretagne ... ,"Ho hé moussaillon ! Je te déconseille d’aller plus loin car la baie des trépassés possède une bien sinistre histoire... Aussi appelée Boë an Anao venant du breton qui signifie la “baie des âmes en peine”, la légende reliée à cette baie raconte qu’autrefois, les corps des matelots qui avaient perdu la vie en mer venaient s’y échouer. Les vents dominants et les marées faisaient que les corps de ces pauvres loups de mer se retrouvaient poussés par le courant et ramenés vers cette fameuse baie des trépassés. On raconte aussi que durant la nuit de Noël, les chants des âmes en peine sur le bateau des morts résonnaient dans la nuit. Brrrr…",48.04701087675775,-4.7068684850055025,Cléden-Cap-Sizun 29770,TRUE,FALSE,TRUE,https://fr.wikipedia.org/wiki/Baie_des_Tr%C3%A9pass%C3%A9s#/media/Fichier:Baie_des_Tr%C3%A9pass%C3%A9s.jpg
La ville d'Ys,Finistère,29,Histoires Maritimes,La ville légendaire Bretonne engloutie par l'Océan surgira-t-elle à nouveau ...,"
Non d’une pipe, ça fait bien longtemps que je n’ai pas entendu parler de la ville d’Ys ! Engloutie par les eaux, cette ville possède une célèbre légende. Elle aurait été bâtie par un roi de Cornouaille en l’honneur de sa fillette. La cité pouvait se situer en dessous du niveau de la mer et était protégée par une digue. Elle bénéficiait d’un port dont l’écluse était contrôlée par le roi. La fille du roi, qui s’appelait Dahut, rêvait que sa ville devienne prospère, elle s’empara un jour d’un dragon dont elle se servit pour détourner les navires marchands alentour et ainsi s’approprier leurs richesses. Ys devint rapidement une cité puissante. Chaque soir, la maîtresse d’Ys invitait ses amants à la rejoindre et leur couvrait le visage avec un masque. Ce masque se transformait en griffes de métal et tuait les pauvres moussaillons dont les corps étaient jetés du haut de la falaise. Un beau jour, un prince de passage vint à la rencontre de Dahut. Elle en tomba profondément amoureuse. Ce prince n’était nul autre que le Diable, qui venait punir la ville. Aveuglée par son amour, Dahut déroba la clé de l’écluse à son père pour l’offrir à l’élu de son cœur. Ce dernier ouvrit l’écluse en les flots envahirent la cité. Seul le roi réussit à en réchapper, grâce à l’aide de Saint Gwénolé.

On dit qu’encore aujourd'hui, lorsque la mer est agitée, on peut entendre sonner les cloches d’Ys, la ville engloutie.
",48.093228,-4.328619,Douarnenez 29100,TRUE,TRUE,TRUE,https://i.pinimg.com/originals/eb/3d/1f/eb3d1f1b45e3fbf1a407bc1df69940bc.jpg
La ville d'Ys,Finistère,29,Croyances Religion,La ville légendaire Bretonne engloutie par l'Océan surgira-t-elle à nouveau ...,"
Peut-être connaissez-vous cette ancienne cité, mon enfant. Si ce n’est pas le cas, laissez-moi vous raconter sa sainte histoire. La ville d’Ys Elle aurait été bâtie par un roi de Cornouaille en l’honneur de sa chère fille. La cité pouvait se situer en dessous du niveau de la mer et était protégée par une digue. Elle bénéficiait d’un port dont l’écluse était contrôlée par le roi. La fille du roi, qui s’appelait Dahut, rêvait que sa ville devienne prospère, elle s’empara un jour d’un dragon dont elle se servit pour détourner les navires marchands alentour et ainsi s’approprier leurs richesses. Ys devint rapidement une cité puissante. Chaque soir, la maîtresse d’Ys invitait ses amants à la rejoindre et leur couvrait le visage avec un masque. Ce masque se transformait en griffes de métal et tuait les pauvres gens dont les corps étaient jetés du haut de la falaise. Un beau jour, un prince de passage vint à la rencontre de Dahut. Elle en tomba profondément amoureuse. Ce prince n’était nul autre que le Diable, qui venait punir la ville. Aveuglée par son amour, Dahut déroba la clé de l’écluse à son père pour l’offrir à l’élu de son cœur. Ce dernier ouvrit l’écluse en les flots envahirent la cité. Seul le roi réussit à en réchapper, grâce à l’aide du pieux Saint Gwénolé.

On dit qu’encore aujourd'hui, lorsque la mer est agitée, on peut entendre sonner les cloches d’Ys, la ville engloutie.
",48.093228,-4.328619,Douarnenez 29100,TRUE,TRUE,TRUE,https://i.pinimg.com/originals/eb/3d/1f/eb3d1f1b45e3fbf1a407bc1df69940bc.jpg
Mona au royaume des morgans,Finistère,29,Créatures Fantastiques,Une jeune fille d'une grande beauté se fait enlever par les morgans..., peuple de la mer","Fée Armelle : “Ecoutez bien cette histoire, car elle est chère à mon cœur. Il y a bien longtemps sur l’île d’Ouessant, vivait une humaine du nom de Mona. Cette jeune femme était d’une telle beauté que l’on disait d’elle qu’elle était la fille d’un Morgan, sublime créature de la mer. Admirée et adulée par cet éclat pur qu’était le sien, Mona en devint fière et arrogante. Un beau jour, alors qu’elle discutait avec ses amies, elle leur avoua ne vouloir épouser qu’un prince, un fils de seigneur, ou un morgan. Un vieux Morgan qui passait par là entendit les paroles de Mona et, subjugué par sa beauté, l’emporta avec lui au fond des mers. Cet homme, qui n’était autre que le roi des morgans, avait un fils qui tomba immédiatement amoureux de la jeune fille. Fou d’amour, il supplia son père de le laisser l’épouser. Mais son père, qui avait les mêmes intentions, refusa et le força à choisir une Morganès. Malgré ses réticences, le jeune Morgan fut marié à une belle Morganès de la cour. Mona fut chargée par le roi de mener les deux mariés jusqu’à la suite nuptiale en tenant un cierge qui, une fois consumé, déclencherait sa mort. Conscient du danger auquel faisait face la femme qu’il aimait, le prince demanda à sa nouvelle épouse de tenir le cierge à la place de Mona quelques instants. Ignorant les intentions du roi, la Morganès s’exécuta. Le cierge se consuma jusqu’à sa main et sans crier gare, le roi lui trancha la tête dans l’obscurité. Ce n’est que plus tard qu’il se rendit compte de son erreur, et autorisa, à la demande de son fils, le mariage avec la fille de la Terre. Cette dernière était cependant malheureuse car elle était loin de sa famille et de ceux qu’elle chérissait tant. Le prince, bouleversé, décida alors de la laisser voir ses proches, à condition qu’elle ne se laisse embrasser par aucun homme sur sa route. Malheureusement, en voyant son père, elle se laissa embrasser et oublia tout souvenir du royaume des Morgans. Mais, un soir, elle entendit des plaintes venant des vagues de la mer. ces gémissements venaient du prince. Mona se rappela de tout, et courut rejoindre son époux. Depuis, nul ne l’a jamais revue.”",48.4598,-5.0863,Ouessant 29242,TRUE,TRUE,TRUE,https://www.brest-terres-oceanes.fr/wp-content/uploads/2018/06/Lîle-dOuessant-©BERTHIER-Emmanuel-1-1920x920.jpg
Le géant du Cap de la Chèvre,Finistère,29,Créatures Fantastiques,Quand le géant Kawr rencontre les korrigans ...,"Fée Armelle : “Approchez, cher voyageur, et écoutez bien cette histoire. Le Cap de la chèvre renferme bon nombre de mystères… L’un d’eux raconte l’histoire du géant Kawrn, un des personnages principaux de la mythologie bretonne. Jadis, les géants régnaient et se nourrissaient de la chair des matelots noyés en mer. Mais dans des grottes non loin de là, vivaient les Korrigans, ces petits lutins facétieux qui peuplent les endroits déserts. Une nuit, le géant Kawr captura l’un des korrigans, et lui demanda de convoquer toute la tribu à se réunir dans la grotte de Morgat. Le géant voulait creuser un tunnel jusqu’à la grotte et dévorer le plus de Korrigans possible. Cependant, lorsqu’il mit son plan à exécution, il déboucha sur une grotte complètement vide. Les Korrigans s’étaient joués de lui. Très malins, les petites créatures avaient allumé un grand feu devant la cavité souterraine, pour que l’épaisse fumée fumée asphyxie le géant qui s’y trouvait. Les lutins profitèrent de l’impuissance de Kawrn pour bloquer les issues de la grotte et l'emmurèrent dans la falaise. La légende raconte que les hurlements furieux du géant parviendront à vos oreilles si vous vous promenez sur le cap de la chèvre lors d’un soir de tempête. Cependant, n'ayez aucune pitié, car quiconque le libérerait se verrait immédiatement dévoré.”",48.23333333,-4.56666667,Crozon 29160,FALSE,FALSE,FALSE,https://upload.wikimedia.org/wikipedia/commons/thumb/9/96/051_La_Pointe_de_Dinan.JPG/800px-051_La_Pointe_de_Dinan.JPG
La légende d'Azénor,Finistère,29,Histoires Maritimes,Le tragique destin de la comtesse Azénor..., victime d'injustice","Tu la connais celle-là ? Cette légende nous raconte l'histoire d’Azénor, une pauvre dam’zelle bien malchanceuse. En 537, Azénor est une jeune fille mariée au comte de Goelo depuis quelques mois, mais elle doit continuellement subir les remarques de sa vieille belle-mère. La marâtre alla même jusqu’à convaincre le comte que son épouse était coupable d’adultère. L’homme, fou de rage, amena Azénor auprès de son père et la fit emprisonner dans la tour qui porte aujourd'hui son nom. La pauvre mam’zelle se fit condamner au bûcher pour ses péchés, mais le feu ne voulut pas prendre. On l’enferma alors dans un tonneau pour le jeter à la mer. La jeune fille, alors enceinte du comte, accosta plus tard sur la Terre d’Irlande, et accoucha d’un petit marmot qu’elle appela Buloc. Sa belle-mère, sur le point de mourir, avoua son mensonge, et le comte remua alors ciel et terre pour retrouver celle qu’il avait injustement condamné. Sur la terre d’Irlande, il croisa le p’tit Buloc, et remarquant la ressemblance avec Azénor, il lui demanda de le conduire à sa mère. Le petit s’exécuta et tous trois finirent par retourner en Bretagne.",48.3813889,-4.494722222222222,"6 Boulevard Jean Moulin, 29200 Brest",FALSE,FALSE,FALSE,https://www.brest.fr/fileadmin/_processed_/7/c/csm_chateau_jyg_ts22678_609acd8dc4.jpg
La légende des Korrigans,Finistère,29,Créatures Fantastiques,Des petits gnomes riches et malicieux...,"Fée Armelle : “De nombreuses créatures vivent sur les côtes bretonnes. Si un jour vous vous promenez sur la presqu’île de Crozon, vous apercevrez peut-être ces petits êtres que l’on appelle les Korrigans. La légende raconte que ces lutins très farceurs se plaisaient à attirer les humains dans des rondes de danse autour du feu. Si l’humain cédait à la tentation, il se faisait tuer ou enfermer dans l’une de leurs cavernes souterraines. Mais si les Korrigans étaient des créatures facétieuses, il leur arrivait parfois de venir en aide aux Hommes et faire le bien autour d’eux.”",48.25475440970997,-4.432193131371162,29160 Crozon,FALSE,FALSE,FALSE,https://littleweekends.fr/wp-content/uploads/2020/03/Croque-Ile-Vierge-Crozon.jpg
Les légendes du Cap Sizun,Finistère,29,Créatures Fantastiques,Les korrigans, lutins et sirènes du Cap Sizun...,"Fée Armelle : “Cher voyageur, permettez-moi de vous conter l’histoire du Cap Sizun, cette célèbre terre bretonne qui regorge de magie et de merveilles. Il existe, cachée dans les hauteurs du cap, une caverne nommée “Toul Korriked”, la taverne des Korrigans. Rares sont les habitants qui osent s’y aventurer à la nuit tombée. Les deux grands dolmens de Kériapoc à Prospéré leur servaient de tables pour jouer aux palets. Les Begou-noz, des lutins malfaisants, se métamorphosaient en feux voltigeants dans les environs de Trez-Goarem pour inciter les passants à se battre. On raconte également que des sirènes auraient établi leur demeure au sein de cette presqu’île effilée. Un humain ignorant tenta un jour de capturer l’une d’entre elles. Effrayée, la sirène plongea immédiatement dans l’eau, déclenchant une tempête qui jeta vingt bateaux à la côte.”",48.091032094831185,-4.520865535261121,29790 Beuzec Cap Sizun,FALSE,FALSE,FALSE,https://cdt29.media.tourinsoft.eu/upload/kastel.jpg
Les légendes du Cap Sizun,Finistère,29,Croyances Religion,Des sorcières impitoyables...,"Le moine : Prenez garde, mon enfant, si un jour il vous arrive de croiser les sorcières du Cap. Ces adoratrices de Satan à la puissance redoutable se rendaient autrefois aux sabbats de la mer dès que la nuit tombait, Le but de ces inquiétantes nautonières était de vouer à la mort leur ennemi désigné, à moins que le jeune homme n’ait auparavant réparé sa faute. Les affreuses sorcières devaient pour cela réaliser trois veillées, assister à trois sabbats, et remettre au démon un objet appartenant à la malheureuse personne qui devait disparaître…",48.091032094831185,-4.520865535261121,29791 Beuzec Cap Sizun,FALSE,FALSE,FALSE,https://cdt29.media.tourinsoft.eu/upload/kastel.jpg
La pointe du Raz,Finistère,29,Histoires Maritimes,Un océan maudit...,"
Hisse la grand-voile et embarque sur le navire pour découvrir la légende de la pointe du Raz ! Elle raconte qu’au crépuscule, un vieux rafiot naviguait sur l’océan, contre vents et marées. Pas d’équipage à bord, seulement un capitaine seul, tenant fermement le gouvernail. Ce matelot n’était autre que l’Ankou marin, premier noyé de l’année. Une immense plainte escortait son rafiot, que jamais personne n’a pu aborder. Son nom ? La barque des morts.
Un autre récit raconte qu’un pêcheur habitant en bord de mer s’est fait un jour réveiller par des coups à sa porte. Tonnerre ! Lorsqu’il alla ouvrir sa porte, une une force invisible et puissante l'entraîna vers son bateau ! Il embarqua et prit la mer en direction d’une mystérieuse île, qui en réalité,  faisait  l’appel des âmes que son rafiot transportait.
",48.04087661696681,-4.7408242693698135,29770 Plogoff,FALSE,FALSE,FALSE,https://storage.lebonguide.com/crop-1600x700/91/56/62DF4EA2-DB1B-4ACA-8354-4BE15F44AC9E.png
La Pointe de Saint-Mathieu,Finistère,29,Histoires Maritimes,Le miracle du naufrage...,"Dis moi jeune mousse, connais-tu la légende de la pointe Saint-Mathieu ? Elle se réfère au saint qui portait son nom. On raconte que des marchands revenant d’Ethiopie avec le corps de Saint-Mathieu auraient été miraculeusement sauvés du naufrage qui a failli causer leur mort au large de la pointe Saint-Mathieu.",48.331673026695306,-4.7734866232475515,29217 Plougonvelin,FALSE,FALSE,FALSE,https://www.tourismebretagne.com/app/uploads/crt-bretagne/2018/09/1-pointe-saint-mathieu-berthier-emmanuel-1920x960.jpg
Cairn de Barnenez,Finistère,29,Créatures Fantastiques,Cairn, demeure des korrigans...,"Fée Armelle : “Si vous vous aventurez près du Cairn de Barnenez, vous apercevrez sûrement quelques Korrigans, ces petits lutins velus qui aiment jouer des tours aux humains. On raconte qu’autrefois, le Carin servait de demeure à ces créatures. Quelques paysans courageux auraient même entrepris de chercher le trésor des Korrigans, évoqué dans une ancienne légende, mais ils ne trouvèrent comme butin que quelques fragments d’os.”",48.66772032004395,-3.8583127869139626,"Cairn de Barnénez, 29252 Plouezoc'h",FALSE,FALSE,FALSE,https://i0.wp.com/scotome.com/blog/wp-content/uploads/2019/09/barnenez66.jpg
La fée de l'ile du Loc'h,Finistère,29,Créatures Fantastiques,Une fée qui finalement n'en est pas une...,"Fée Armelle : “Approchez, humble voyageur et tendez l’oreille ; voici l’histoire de la fée de l’île du Loc’h. Il y a bien longtemps, deux amants, Houlan Pogam de Lannilis et Bella Postik souhaitaient se marier. Malheureusement, leur situation précaire les empêchaient de célébrer leurs noces. Il y avait au village, une légende racontant qu’une fée dotée de pouvoirs merveilleux vivait sur l’île du Loc’h. Houlan prit la décision de s’y rendre, dans l’espoir que la fée puisse lui accorder ce qu’il souhaitait tant. Lorsqu’il arriva sur l’île, il se rendit compte qu’il avait été berné. La fée était en réalité une sorcière propriétaire d’un magnifique trésor qui transforma Houlan en grenouille verte. Par chance, Bella vint le délivrer de la malédiction grâce à un talisman qu’elle possédait. Les deux amants s’en servirent pour délivrer les autres malheureuses victimes piégées dans les filets magiques de la sorcière, puis ils s’emparèrent du trésor et purent célébrer leur mariage à Lannilis.”",47.706312413968284,-3.995927778070277,Fouesnant,FALSE,FALSE,FALSE,https://www.letelegramme.fr/ar/imgproxy.php/images/2017/08/23/l-ile-du-loc-h-est-la-plus-grande-de-l-archipel-des-glenan_3573361.jpg
Le dragon de l'ile de Batz,Finistère,29,Créatures Fantastiques,La légende a fait de ce rocher le lieu où Saint Pol aurait précipité dans la mer le dragon qui terrorisait l'ile...,"Fée Armelle : Les dragons sont des créatures impitoyables… Et l’un d’eux est devenu célèbre sur cette île, laissez -moi vous conter son histoire. Un beau jour, le moine Paul Aurélien se rendit sur l'Île de Batz afin d’évangéliser cette partie de la Bretagne. Le compte Withur accepta de l'accueillir avec plaisir et bienveillance sur ses terres, mais seulement à condition de délivrer le pays d’un affreux dragon semant la terreur autour de lui. Ce dragon avait déjà dévoré des hommes, des femmes et des animaux. Tous ceux qui jusqu’alors avaient essayé de combattre la bête y avaient laissé leur vie. Après une nuit entière de prières, le moine se fit accompagner d’un jeune guerrier pour l’aider dans sa quête. Ils se rendirent au repaire du monstre, et le dragon parut en poussant d’horribles sifflements. Pourtant, Paul Aurélien parvint à le conduire jusqu’à la pointe ouest de l'île, et lui ordonna de se précipiter dans la mer, dans cet endroit que l’on nomme aujourd'hui Le trou du Serpent. Le dragon s'exécuta. Le moine se fit ensuite récompenser par le comte en se voyant offrir l'île de Batz. On raconte encore aujourd’hui que les vagues qui se fracassent sur le fameux rocher produisent toujours ce sifflement étrange.",48.748446385263726,-4.015452942083586,29253 Île-de-Batz,FALSE,FALSE,FALSE,https://live.staticflickr.com/65535/48695614402_8057b4fe55_o.jpg
Le phare de Tévennec,Finistère,29,Histoires Maritimes,Un phare qui causerait de la folie et des naufrages chez les marins qui s'en approchent...,"Halte là, cette histoire n’est pas pour les marins d’eau douce ! Le phare de Tévennec est à l’origine d’une sombre légende : il aurait été la cause de nombreux naufrages en raison de son sommet, s’élevant à quatorze mètres au-dessus du niveau de l’océan, ce qui en fait un phare fréquemment balayé par les embruns. Il est impossible d’y aborder dès que la mer est formée. Le phare dispose d’une sinistre réputation auprès des matelots et des habitants du cap Sizun, de laquelle on raconte toutes sortes d’histoires : des marins qui deviennent fous en quelques mois, d’autres qui meurent brutalement, des cris lugubres, qui viendraient des âmes des marins naufragés sur l'îlot. On raconte que des plongeurs auraient découvert une grotte sous-marine traversant cet îlot, et lorsque les vagues s’y engouffrent, l’air s’échappe des failles de la roche et produit de sinistres hurlements…",48.07152977555185,-4.795290730760175,Domaine public maritime,FALSE,FALSE,FALSE,https://tel.img.pmdstatic.net/fit/http.3A.2F.2Fprd2-bone-image.2Es3-website-eu-west-1.2Eamazonaws.2Ecom.2FTEL.2F2019.2F09.2F20.2Fe8b349ef-33d8-4b59-924e-e6c9f6757e1b.2Ejpeg/860x600/quality/65/le-phare-de-tevennec-bretagne.jpg
Les pilleurs d'épave de Ménéham,Finistère,29,Histoires Maritimes,Les paganiz, des êtres pilleurs et meutriers...,"Tu as l’air d’en connaitre un bon bout sur l'océan moussaillon, mais as-tu déjà entendu parler des Paganiz ? Ce peuple composé d’hommes et de femmes à la fois cruels, perfides et sournois, accrochaient des lanternes aux cornes des vaches lorsque la nuit tombait et qu’il faisait mauvais temps. Cette pratique n’avait qu’un seul but : provoquer la perdition des frégates qui voguaient au large de l’océan. La légende raconte aussi que les survivants des rafiots échoués sur la grève se faisaient tuer par les paganiz et se faisaient dépouiller de leurs biens, avant que leurs corps ne soient rejetés à la mer. Les membres de ce peuple barbare et cruel n’hésitaient pas à “arracher une bague au doigt d’une femme qui se noyait, à lui couper avec les dents.” Mais l’histoire nous montre que les naufrages seraient dûs à la côte du pays des pagans, et la seule vraisemblance de cette sanglante légende serait la pauvreté des habitants qui les auraient poussés à piller les navires déjà échoués.",48.668228105504234,-4.371160961117763,29890 Kerlouan,FALSE,FALSE,FALSE,https://www.brest-terres-oceanes.fr/wp-content/uploads/2018/06/Le-poste-de-garde-du-village-de-Meneham-%C2%A9-BERTHIER-Emmanuel-1920x920.jpg
La légende du Lutin Nicole,Côte d’Armor & Ille-et-Villaine,2235,Créatures Fantastiques,Un affreux lutin qui sème la terreur autour de lui...,"Fée Armelle : “Je vais aujourd’hui vous conter la légende du lutin Nicole. Cette créature au corps de marsouin vivait au nord, entre St Malo et St Brieuc. Il était tellement mauvais et malicieux que même mes sœurs et moi-même ne nous risquions pas à nous aventurer sur ses terres. Nicole ne cessait de jouer des tours aux hommes vivant dans la baie. Il était tellement malfaisant que les marins en étaient venus à supplier le recteur Saint-Cast de l’exorciser. Le recteur accepta et s’en alla trouver le lutin, accompagné de deux pêcheurs. Nicole se retrouva rapidement pris au piège et demanda grâce. Plus tard, il remit aux hommes un parchemin sur lequel il s’engageait à les laisser en paix, et on ne le revit plus jamais.”",48.55982688699681,-2.7406033170489126,St Brieuc,FALSE,FALSE,FALSE,https://www.bretagne.com/sites/default/files/post/30744-une-Saint-Brieuc-baie.jpg
La légende du Lutin Nicole,Côte d’Armor & Ille-et-Villaine,2235,Histoires Maritimes,Un affreux lutin qui sème la terreur autour de lui...,"L’océan est souvent la demeure idéale pour bon nombre de monstres cruels et perfides. Mais le plus fourbe d’entre eux est sans aucun doute ce fichu petit lutin Nicole. Son domaine s’étendait de la baie de St Malo à St Brieuc. Son nom faisait référence à un marin-pêcheur acariâtre et sévère dont certains prétendaient que l’âme était passée dans le corps du marsouin. Redouté par les marins pêcheurs, l’affreuse créature Nicole déchirait les mailles des filets, emmêlait les amarres des bateaux où les déplaçait pendant la nuit. Il était tellement fourbe que les matelots en étaient venus à supplier le recteur Saint-Cast de l’exorciser. Muni de son eau bénite, le recteur s’en alla trouver Nicole, accompagné de deux pêcheurs. Saint-Cast parvint à attraper l’une de ses nageoires et en profita pour l’asperger d’eau bénite. Pris au piège, le lutin demanda grâce. Plus tard, il remit aux hommes un parchemin sur lequel il s’engageait à les laisser en paix, et on ne le revit plus jamais, le scélérat !",48.55982688699681,-2.7406033170489126,St Brieuc,FALSE,FALSE,FALSE,https://www.bretagne.com/sites/default/files/post/30744-une-Saint-Brieuc-baie.jpg
Gargantua,Côte d’Armor & Ille-et-Villaine,2235,Histoires Maritimes,L'histoire de la traversée d'un géant...,"
Gargantua, ça te dit quelque chose ? Ce bougre géant possède une sacré histoire !

Tout commence par une requête d’Arthur à Merlin. Le roi avait besoin d’une arme puissante qui l’aiderait à vaincre ses ennemis. Le magicien s’est alors rendu en orient pour faire naître, des cadavres de deux baleines, Grantgosier et Gallemelle, deux géants qui donneront naissance à Gargantua. Les géants traversèrent ensuite l’Europe pour rejoindre l’Angleterre. Arrivés devant la Manche, les deux géants déposèrent un caillou chacun, créant le Mont-Saint-Michel et l’Îlot de Tombelaine. L’un des périples du géant Gargantua le mena à Cancale, où il jeta les cailloux de sa chaussure que l’on appelle aujourd’hui les rochers de Cancale. Selon la légende, le Mont Dol et le Rocher de Bizeux sont également des cailloux de ses chaussures. Lorsqu’il atteignit Saint Malo, Gargantua fut pris d’une violente indigestion après avoir avalé 790 bœufs, le bougre ! Qui dévore 790 oeufs de nos jours ? Il régurgita son repas, et ainsi naquirent le Petit et le Grand Bé. L’île d’Agot, près de Saint Briac, est née de la même façon.
",48.651987937284986,-2.0231830998678864,St Malo,FALSE,FALSE,FALSE,https://www.tourismebretagne.com/app/uploads/crt-bretagne/2018/11/saint-malo-antoine2k-fotolia-5-1920x960-crop-1543920634.jpg
Gargantua,Côte d’Armor & Ille-et-Villaine,2235,Créatures Fantastiques,L'histoire de la traversée d'un géant...,"
Fée Armelle : “Si un jour votre périple vous mène à St Malo ou à St Brieuc, alors écoutez bien cette histoire, car peut-être marcherez-vous dans les pas de géant de Gargantua.

Gargantua est né de Grantgosier et Gallemelle, deux géants qui naquirent de la main enchanteresse de Merlin et de cadavres de baleines. La naissance de Gargantua n’avait que pour unique but d’aider le roi Arthur à vaincre ses ennemis. Ainsi, le géant traversa plusieurs fois l’Europe pour aider son roi. L’un de ses périples le mena à Cancale où il jeta les cailloux de sa chaussure que l’on appelle aujourd’hui les rochers de Cancale. Selon la légende, le Mont Dol et le Rocher de Bizeux sont également les pierres de ses souliers. Lorsqu’il atteint Saint Malo, Gargantua fut pris d’une indigestion après avoir avalé 790 bœufs. Il régurgita son repas, et ainsi naquirent le Petit et le Grand Bé. L’île d’Agot, près de Saint Briac, vit le jour de la même façon.”
",48.63288810497135,-2.1388210707121558,Saint Briac,FALSE,FALSE,FALSE,https://upload.wikimedia.org/wikipedia/commons/e/e3/Saint-Briac-sur-Mer-plaisance-by-Rundvald.JPG
L'ile aux moines,Morbihan,56,Croyances Religion,Un amour impossible...,"Connaissez-vous la légende de l’Ile d’Arz mon enfant ? Elle raconte une histoire qui s’est passée jadis, l’histoire cruelle d’un amour impossible entre un marin de l’Île au Moines et une jeune fille de l’Île d’Arz. À l’époque, un sentier reliait les deux îles à marée basse, c'est-à-dire à peu près toutes les six heures. La jeune femme traversait ce chemin toutes les nuits pour retrouver l’élu de son coeur. Cependant, un matin, elle fut reconnue par un villageois de l’Île aux Moines qui s’empressa d’aller informer les parents du jeune homme. Suite à cela, le marin fut conduit dans un monastère. Le coeur brisé, la jeune femme continua néanmoins de se rendre tous les jours sous la fenêtre de son amant. Le gardien des lieux, exaspéré, finit par faire appel aux Korrigans qui inondèrent le sentier, noyant la jeune femme, et séparant les deux îles à tout jamais.",47.59750000,-2.84333333,56780 Île-aux-Moines,TRUE,TRUE,TRUE,https://www.iles-du-ponant.com/wp-content/uploads/moine/Ile-aux-moines-3-2000x850.jpg
L'ile aux moines,Morbihan,56,Histoires Maritimes,Un amour impossible...,"Prépare-toi à pleurer matelot, car cette légende raconte l’histoire d’un amour impossible entre un jeune marin de l’Île au Moines et une jolie mam’zelle de l’Île d’Arz. Il y a très longtemps, un sentier reliait les deux îles à marée basse, c'est-à-dire à peu près toutes les six heures. La jeune fillette traversait ce chemin toutes les nuits pour retrouver celui qu’elle aimait. Mais un matin, elle fut reconnue par un villageois de l’Île aux Moines qui s’empressa d’aller informer les parents du jeune matelot. Non d’une pipe ! Le marin fut ensuite conduit dans un monastère. Le cœur brisé, la fillette continua néanmoins de se rendre tous les jours sous la fenêtre de son amant. Le gardien des lieux finit par faire appel aux Korrigans, ces horribles petits monstres, pour innonder le sentier, noyant la jeune femme, et séparant les deux îles pour toujours.",47.59750000,-2.84333333,56780 Île-aux-Moines,TRUE,TRUE,TRUE,https://www.iles-du-ponant.com/wp-content/uploads/moine/Ile-aux-moines-3-2000x850.jpg
La légende de l'ile d'Houat,Morbihan,56,Créatures Fantastiques,Houat, entre légende et histoire vraie...,"« Ce petit peuple, autonome et joyeux, ne vit que par la pêche et l'agriculture. Les maisons n'ont pas de serrure aux portes, et les anciens sont les gardiens des règles. Ce peuple ne se déplace sur la Grande Terre qu'en été, pour vendre la pêche et s'y fournir de quelques provisions indispensables pour passer le rude hiver. Lorsque d'aventure, un étranger désireux de découvrir cet havre de paix, pose le pied sur l'île, déposé par un bateau venant de Saint-Gildas ou de Quiberon, le premier habitant le croisant, l'invite chez lui, lui offre gîte et couvert pour un jour, et le confie à son voisin qui prend le relais...et ainsi de suite tant que l'étranger souhaite rester sur l'île. » Brocéliande. Isolés du continent, ses habitants vivaient en harmonie avec le ciel et la mer. ",47.391609919439155,-2.966795321452023,"Île-d'Houat, 56170",TRUE,TRUE,TRUE,https://popknel.files.wordpress.com/2019/10/weekend-houat-10.jpg?w=2000&h=1200&crop=1
La légende de l'ile d'Houat,Morbihan,56,Histoires Maritimes,Houat, entre légende et histoire vraie...,"Levez l'encre, et venez découvrir la légende d'Houat, une île qui serait née d'une couronne de fleur jetée à la mer par les fées de Brocéliande. Isolés du continent, ses habitants vivaient
en harmonie avec le ciel et la mer.

« ​Ce petit peuple, autonome et joyeux, ne vit que par la pêche et l'agriculture. Les maisons n'ont pas de serrure aux portes, et les anciens sont les gardiens des règles. Ce peuple ne se déplace sur la Grande Terre qu'en été, pour vendre la pêche et s'y fournir de quelques provisions indispensables pour passer le rude hiver. Lorsque d'aventure, un étranger désireux de découvrir cet havre de paix, pose le pied sur l'île, déposé par un bateau venant de Saint-Gildas ou de Quiberon, le premier habitant le croisant, l'invite chez lui, lui offre gîte et couvert pour un jour, et le confie à son voisin qui prend le relais...et ainsi de suite tant que l'étranger souhaite rester sur l'île. »

Houat serait née d’une couronne de fleur jetée à la mer par les fées de Brocéliande. Isolés du continent, ses habitants vivaient en harmonie avec le ciel et la mer.",47.391609919439155,-2.966795321452023,"Île-d'Houat, 56170",TRUE,TRUE,TRUE,https://popknel.files.wordpress.com/2019/10/weekend-houat-10.jpg?w=2000&h=1200&crop=1
Les alignements de Carnac,Morbihan,56,Croyances Religion,La légende de St Cornély...,"Mon cher confrère Saint Cornély était pape à Rome. La légende raconte qu’après s’être fait persécuté par un empereur, il quitta la ville avec deux bœufs qui lui servaient de monture. Il fut poursuivi par des soldats romains à travers toute la Gaule. Lorsqu’il atteignit la région de Carnac, il s’arrêta au village de Moustoir pour reprendre des forces. Il reprit son périple quelques jours plus tard, après avoir entendu une jeune fille blasphémer et insulter sa propre mère ! Il parvint au sommet d’une colline, où il fut encerclé par ses poursuivants. Il leva alors la main vers le ciel et transforma les soldats en pierre. À cet endroit s’élève aujourd’hui une église sainte construite en son honneur et l’on nomma ces longues rangées de menhirs ‘Soudarded Sant Kornely’ (soldats de Saint Cornély) dont, dit-on, “les jours de tempête, leurs âmes viennent encore roder”.",47.593301745582416,-3.0825425,"LIeu-dit le Ménec, 56340 Carnac",FALSE,TRUE,TRUE,https://www.lepelerin.com/wp-content/uploads/2019/02/A-Carnac-nom-d-un-menhir-e1558610666135.jpg
l'île du Golfe,Morbihan,56,Créatures Fantastiques,On dit que ce sont des petites fées qui sont à l’origine des îles du Golfe...,"Fée Armelle : “Laissez-moi, cher voyageur, vous conter l’une de mes histoires… Si vous vous aventurez dans les contrées du Morbihan, alors sachez ceci... : il y a fort longtemps, mes sœurs et moi vivions en paix dans la forêt de Brocéliande. Un jour, sans que l’on ne sache pourquoi, les Korrigans nous en chassèrent. Dévastées, nos larmes formèrent une marée, que l’on nomme aujourd’hui le Golfe. Nous jetâmes nos couronnes de fleurs pour créer les 365 îles du Golfe. Trois de ces couronnes furent emportées par le vent jusqu’à l’océan, donnant naissance aux îles d’Houat, Hoëdic et Belle-île. Encore aujourd’hui, il n’est pas rare, cher voyageur, d’apercevoir quelques fleurs de genêts, flotter au gré des courants.”",47.56820889537029,-2.769526519302257,Golfe du Morbihan,TRUE,TRUE,TRUE,https://mersetbateaux.com/wp-content/uploads/2019/02/baie-de-Quiberon.jpg
l'île du Golfe,Morbihan,56,Histoires Maritimes,On dit que ce sont des petites fées qui sont à l’origine des îles du Golfe...,"Les fées ont beau être jolies, qu’est-ce qu’elles peuvent être agaçantes ! On dit que ce sont ces petites bestioles qui sont à l’origine des îles du Golfe. La légende raconte que des Korrigans, ces affreux lutins, auraient chassé les fées de la forêt de Brocéliande. Les fées versèrent tant de larmes de crocodile qu’elles en formèrent toute une marée : il s’agit aujourd’hui du Golfe. Elles y jetèrent leurs couronnes de fleurs qui donnèrent les 365 îles du Golfe. Trois couronnes, emportées par le vent, dévièrent jusqu’à l’océan, créant ainsi les îles de Houat, Hoëdic et Belle-Île. Encore aujourd’hui, si vous vous promenez le long du littoral du Golfe, vous pourrez peut-être apercevoir flotter au gré des courants, une ou deux fleurs de genêts.",47.56820889537029,-2.769526519302257,Golfe du Morbihan,TRUE,TRUE,TRUE,https://mersetbateaux.com/wp-content/uploads/2019/02/baie-de-Quiberon.jpg
la légende des korrigans,Morbihan,56,Créatures Fantastiques,Des petites créatures bien perfides...,"Avez-vous déjà rencontré ces créatures appelées les Korrigans ? Cette légende raconte que de petits lutins, aussi nommés les “Kérions”, ont établi domicile dans les menhirs ou les dolmens longeant les côtes de Carnac. Ces petits êtres farceurs auraient remué toutes les pierres pour former les célèbres alignements.",47.59450638437026,-3.0825334861674043,Carnac,FALSE,FALSE,FALSE,https://www.carnac.fr/var/ayaline/storage/images/media/diaporamas/diaporama-sur-la-page-d-accueil/vue-aerienne-plage/53922-1-fre-FR/Vue-aerienne-plage_diaporama_image_home_filter.jpg
